ONEWEB-0709             
1 55172U 23004AJ  26065.20370966 -.00000225  00000+0 -67001-3 0  9998
2 55172  87.8852  41.5599 0002649  92.1543 267.9889 13.11417055152373
ONEWEB-0710             
1 55173U 23004AK  26064.93058337 -.00000175  00000+0 -48360-3 0  9994
2 55173  87.9143  26.3721 0001898  75.8339 284.3003 13.17648383153987
ONEWEB-0711             
1 55174U 23004AL  26064.94599063 -.00000184  00000+0 -55634-3 0  9994
2 55174  87.8862  41.5926 0001924  60.3770 299.7550 13.11414603152301
ONEWEB-0713             
1 55175U 23004AM  26064.88834094 -.00000412  00000+0 -11981-2 0  9994
2 55175  87.8861  41.6038 0001857  71.2957 288.8373 13.11417103152286
ONEWEB-0715             
1 55176U 23004AN  26065.18844264 -.00000580  00000+0 -16717-2 0  9997
2 55176  87.8858  41.5440 0002574  82.6677 277.4743 13.11415826152365
ONEWEB-0716             
1 55177U 23004AP  26065.30353543  .00000037  00000+0  62587-4 0  9990
2 55177  87.9147  26.2976 0001753  87.7353 272.3979 13.17648847154035
ONEWEB-0717             
1 55178U 23004AQ  26065.28665064 -.00000071  00000+0 -21699-3 0  9990
2 55178  87.9142  26.2824 0001959  65.3949 294.7386 13.17649096154086
ONEWEB-0719             
1 55179U 23004AR  26065.29676690  .00000021  00000+0  19748-4 0  9995
2 55179  87.9153  26.2600 0001663  82.9295 277.2025 13.17651004154035
ONEWEB-0530             
1 55796U 23029A   26065.13696832  .00000105  00000+0  22669-3 0  9998
2 55796  87.9170 295.0543 0001449  64.5646 295.5637 13.20772288147541
ONEWEB-0534             
1 55797U 23029B   26065.04858870  .00000085  00000+0  17636-3 0  9996
2 55797  87.9169 295.0708 0001544  87.6514 272.4796 13.20771944147536
ONEWEB-0556             
1 55798U 23029C   26065.13066087  .00000077  00000+0  15794-3 0  9992
2 55798  87.9167 295.0565 0000724 107.0104 253.1108 13.20771910147544
ONEWEB-0562             
1 55799U 23029D   26065.19378744  .00000048  00000+0  87260-4 0  9991
2 55799  87.9169 295.0241 0001029  53.8155 306.3073 13.20772271147555
ONEWEB-0563             
1 55800U 23029E   26065.18747225  .00000065  00000+0  12784-3 0  9994
2 55800  87.9166 295.0558 0001513  95.4271 264.7035 13.20772628147545
ONEWEB-0564             
1 55801U 23029F   26065.18116156  .00000012  00000+0 -17399-5 0  9990
2 55801  87.9166 295.0293 0001403  69.6090 290.5194 13.20772496147559
ONEWEB-0638             
1 55802U 23029G   26065.17735583 -.00000110  00000+0 -33138-3 0  9998
2 55802  87.8983 310.3136 0001047  76.3963 283.7284 13.14503405145862
ONEWEB-0639             
1 55803U 23029H   26065.22434394  .00000132  00000+0  29824-3 0  9990
2 55803  87.9233 325.4908 0002372  96.9748 263.1654 13.19721570145321
ONEWEB-0640             
1 55804U 23029J   26065.18686196  .00000108  00000+0  25589-3 0  9992
2 55804  87.8984 310.3024 0001046 102.0606 258.0641 13.14502068145889
ONEWEB-0641             
1 55805U 23029K   26065.21959857  .00000067  00000+0  13468-3 0  9991
2 55805  87.9243 325.4773 0001729  85.5284 274.6046 13.19726683145331
ONEWEB-0642             
1 55806U 23029L   26065.21486218  .00000082  00000+0  17159-3 0  9996
2 55806  87.9234 325.4935 0002265  99.1138 261.0252 13.19726383145322
ONEWEB-0643             
1 55807U 23029M   26065.23285467 -.00000087  00000+0 -26846-3 0  9992
2 55807  87.8987 310.2805 0002174  92.4047 267.7332 13.14502440145861
ONEWEB-0644             
1 55808U 23029N   26065.21013014  .00000116  00000+0  25740-3 0  9991
2 55808  87.9226 325.5016 0001982  89.3270 270.8090 13.19726015145329
ONEWEB-0645             
1 55809U 23029P   26065.23223460  .00000064  00000+0  12634-3 0  9992
2 55809  87.9232 325.4892 0001607  97.4339 262.6976 13.19724191145323
ONEWEB-0646             
1 55810U 23029Q   26065.24959870  .00000076  00000+0  15828-3 0  9997
2 55810  87.9231 325.4860 0001867  85.9973 274.1373 13.19727724145316
ONEWEB-0648             
1 55811U 23029R   26065.12502085  .00000336  00000+0  87267-3 0  9992
2 55811  87.8993 310.2664 0001835 114.6283 245.5038 13.14502342145855
ONEWEB-0649             
1 55812U 23029S   26065.27487387  .00000102  00000+0  22335-3 0  9992
2 55812  87.9236 325.4776 0001627  91.1672 268.9647 13.19725389145352
ONEWEB-0650             
1 55813U 23029T   26065.27013627  .00000065  00000+0  12927-3 0  9999
2 55813  87.9232 325.4817 0001907  92.7491 267.3860 13.19727550145321
ONEWEB-0652             
1 55814U 23029U   26065.18210849 -.00000040  00000+0 -14147-3 0  9996
2 55814  87.8988 310.2706 0001608  75.4275 284.7033 13.14502647145838
ONEWEB-0653             
1 55815U 23029V   26065.16624818 -.00000136  00000+0 -40050-3 0  9998
2 55815  87.8994 310.2646 0001450  77.8803 282.2489 13.14502243145860
ONEWEB-0654             
1 55816U 23029W   26065.23760782 -.00000137  00000+0 -40486-3 0  9992
2 55816  87.8986 310.2496 0001538  67.1017 293.0275 13.14502588145899
ONEWEB-0656             
1 55817U 23029X   26065.17484919  .00000018  00000+0  13273-4 0  9992
2 55817  87.9177 294.9967 0001474  68.3326 291.7964 13.20772372147551
ONEWEB-0657             
1 55818U 23029Y   26065.26541271  .00000072  00000+0  14800-3 0  9994
2 55818  87.9236 325.4812 0002214  66.6039 293.5326 13.19725783145330
ONEWEB-0658             
1 55819U 23029Z   26065.26067210  .00000051  00000+0  95770-4 0  9994
2 55819  87.9245 325.4491 0001961  90.7497 269.3861 13.19725634145349
ONEWEB-0660             
1 55820U 23029AA  26065.21541453  .00000166  00000+0  41290-3 0  9991
2 55820  87.8995 310.2407 0001450  96.6584 263.4711 13.14502958145870
ONEWEB-0661             
1 55821U 23029AB  26065.17417563 -.00000072  00000+0 -22844-3 0  9993
2 55821  87.8984 310.3052 0001324  90.3168 269.8113 13.14503597145859
ONEWEB-0662             
1 55822U 23029AC  26065.20906984  .00000257  00000+0  65873-3 0  9990
2 55822  87.8982 310.3062 0001461  92.9076 267.2221 13.14502443145904
ONEWEB-0663             
1 55823U 23029AD  26065.14044995  .00000065  00000+0  12702-3 0  9999
2 55823  87.9184 295.0763 0001654 102.6969 257.4349 13.20861898147544
ONEWEB-0664             
1 55824U 23029AE  26065.16221500  .00000020  00000+0  16098-4 0  9995
2 55824  87.9171 295.0636 0001062  88.9002 271.2253 13.20775001147545
ONEWEB-0665             
1 55825U 23029AF  26065.17100889 -.00000117  00000+0 -35059-3 0  9999
2 55825  87.8988 310.2861 0001538  92.4847 267.6459 13.14502291145879
ONEWEB-0666             
1 55826U 23029AG  26065.15591181 -.00000013  00000+0 -63225-4 0  9999
2 55826  87.9165 295.0557 0002092  66.1393 293.9959 13.20772103147552
ONEWEB-0667             
1 55827U 23029AH  26065.14960178  .00000052  00000+0  95768-4 0  9993
2 55827  87.9183 294.9968 0001458  89.6367 270.4933 13.20771679147541
ONEWEB-0669             
1 55828U 23029AJ  26065.14486546  .00000090  00000+0  19042-3 0  9998
2 55828  87.9167 295.0229 0001240  62.2837 297.8422 13.20771859147540
ONEWEB-0670             
1 55829U 23029AK  26065.22492413  .00000096  00000+0  22555-3 0  9997
2 55829  87.8987 310.2941 0001229  86.7486 273.3784 13.14502564145905
ONEWEB-0671             
1 55830U 23029AL  26065.25592948  .00000053  00000+0  10049-3 0  9994
2 55830  87.9230 325.4850 0001569  87.4917 272.6396 13.19726482145329
ONEWEB-0672             
1 55831U 23029AM  26065.14012726  .00000062  00000+0  11953-3 0  9999
2 55831  87.9178 295.0099 0001640  75.3572 284.7743 13.20772709147542
ONEWEB-0673             
1 55832U 23029AN  26065.23301628  .00000045  00000+0  79050-4 0  9996
2 55832  87.9239 325.4742 0001575  82.2011 277.9300 13.19727166145328
ONEWEB-0674             
1 55833U 23029AP  26065.19320491  .00000174  00000+0  43422-3 0  9997
2 55833  87.8983 310.2780 0001126  82.6142 277.5115 13.14501987145886
ONEWEB-0675             
1 55834U 23029AQ  26065.24803366  .00000680  00000+0  16670-2 0  9997
2 55834  87.9223 325.4886 0002069  77.5895 282.5469 13.19723227145342
ONEWEB-0720             
1 55835U 23029AR  26065.24014269  .00000060  00000+0  11841-3 0  9992
2 55835  87.9234 325.4892 0001739  92.9387 267.1945 13.19725415145262
ONEWEB-0537             
1 56046U 23043A   26065.21869985  .00000113  00000+0  26230-3 0  9990
2 56046  87.9004 249.2531 0001648  84.6371 275.4948 13.16593491145411
ONEWEB-0538             
1 56047U 23043B   26065.06038894 -.00000072  00000+0 -22117-3 0  9997
2 56047  87.9001 249.2883 0001893  96.1365 263.9982 13.16593411145403
ONEWEB-0546             
1 56048U 23043C   26065.04772286  .00000072  00000+0  15363-3 0  9999
2 56048  87.9005 249.2885 0001810  73.1030 287.0299 13.16593705145395
ONEWEB-0547             
1 56049U 23043D   26065.07469570  .00000012  00000+0 -26018-5 0  9998
2 56049  87.9166 264.5343 0001672  91.7801 268.3524 13.21823966144608
ONEWEB-0548             
1 56050U 23043E   26065.22425508  .00000008  00000+0 -12191-4 0  9991
2 56050  87.8999 249.2527 0001095  98.3769 261.7486 13.16592725145416
ONEWEB-0549             
1 56051U 23043F   26065.29439487  .00000020  00000+0  17485-4 0  9994
2 56051  87.9162 264.5023 0001815  94.1700 265.9641 13.21826451144634
ONEWEB-0550             
1 56052U 23043G   26065.05412038  .00000016  00000+0  71411-5 0  9997
2 56052  87.9167 264.5456 0001559 102.6836 257.4473 13.21824015144600
ONEWEB-0551             
1 56053U 23043H   26065.09755653 -.00000003  00000+0 -42743-4 0  9998
2 56053  87.8944 279.8132 0001836  94.1839 265.9501 13.15548476142846
ONEWEB-0552             
1 56054U 23043J   26065.27629004  .00000086  00000+0  17733-3 0  9998
2 56054  87.9162 264.5094 0001612  99.9050 260.2266 13.21826034144639
ONEWEB-0553             
1 56055U 23043K   26064.97805540 -.00000026  00000+0 -10033-3 0  9998
2 56055  87.9006 249.3050 0001524  81.2510 278.8794 13.16593455145394
ONEWEB-0554             
1 56056U 23043L   26064.96538759  .00000053  00000+0  10503-3 0  9993
2 56056  87.9002 249.3180 0001285  94.3051 265.8227 13.16593518145379
